H1 CPF 01  gfz 2022 06 02 12  6532 tandemx   
H2 1003001  6202 36605    2022 06 02 12 59 42 2022 06 07 00 00 42   120 1 1  0 0 0
H9
10 0 59734  56142.000000  0    5206639.211   4138506.804  -1805488.171
10 0 59734  56262.000000  0    5457352.541   4105483.275   -919179.216
10 0 59734  56382.000000  0    5611528.147   3997221.407    -16706.275
10 0 59734  56502.000000  0    5665128.314   3817294.202    886059.637
10 0 59734  56622.000000  0    5615963.205   3570597.199   1773225.723
10 0 59734  56742.000000  0    5463754.539   3263229.502   2629166.112
10 0 59734  56862.000000  0    5210160.247   2902351.782   3438805.927
10 0 59734  56982.000000  0    4858759.433   2496023.439   4187894.409
10 0 59734  57102.000000  0    4414997.291   2053022.792   4863259.205
10 0 59734  57222.000000  0    3886096.396   1582658.143   5453038.326
10 0 59734  57342.000000  0    3280930.730   1094571.546   5946889.232
10 0 59734  57462.000000  0    2609867.739    598539.286   6336164.456
10 0 59734  57582.000000  0    1884585.213    104276.592   6614055.278
10 0 59734  57702.000000  0    1117865.451   -378751.135   6775705.908
10 0 59734  57822.000000  0     323367.297   -841509.260   6818294.746
10 0 59734  57942.000000  0    -484618.435  -1275562.433   6741079.554
10 0 59734  58062.000000  0   -1291425.703  -1673228.094   6545408.960
10 0 59734  58182.000000  0   -2082278.261  -2027712.440   6234698.868
10 0 59734  58302.000000  0   -2842557.892  -2333225.818   5814376.898
10 0 59734  58422.000000  0   -3558075.980  -2585079.126   5291796.404
10 0 59734  58542.000000  0   -4215343.829  -2779758.345   4676113.342
10 0 59734  58662.000000  0   -4801832.114  -2914974.183   3978129.765
10 0 59734  58782.000000  0   -5306215.905  -2989685.822   3210107.496
10 0 59734  58902.000000  0   -5718600.590  -3004099.182   2385554.966
10 0 59734  59022.000000  0   -6030724.453  -2959640.117   1518988.671
10 0 59734  59142.000000  0   -6236130.964  -2858901.992    625671.896
10 0 59734  59262.000000  0   -6330305.338  -2705567.191   -278661.489
10 0 59734  59382.000000  0   -6310773.868  -2504306.808  -1178092.749
10 0 59734  59502.000000  0   -6177160.783  -2260659.341  -2056808.779
10 0 59734  59622.000000  0   -5931201.371  -1980892.726  -2899387.577
10 0 59734  59742.000000  0   -5576713.906  -1671853.499  -3691073.567
10 0 59734  59862.000000  0   -5119530.473  -1340806.991  -4418037.657
10 0 59734  59982.000000  0   -4567389.778   -995272.650  -5067616.724
10 0 59734  60102.000000  0   -3929794.413   -642858.046  -5628529.024
10 0 59734  60222.000000  0   -3217836.497   -291095.937  -6091060.911
10 0 59734  60342.000000  0   -2443997.262     52712.157  -6447223.471
10 0 59734  60462.000000  0   -1621924.576    381642.373  -6690878.730
10 0 59734  60582.000000  0    -766191.981    689282.306  -6817834.391
10 0 59734  60702.000000  0     107955.461    969852.019  -6825907.488
10 0 59734  60822.000000  0     984865.379   1218308.984  -6714957.271
10 0 59734  60942.000000  0    1848751.483   1430436.047  -6486890.185
10 0 59734  61062.000000  0    2683972.367   1602912.619  -6145630.862
10 0 59734  61182.000000  0    3475310.428   1733366.243  -5697061.099
10 0 59734  61302.000000  0    4208245.730   1820404.073  -5148927.844
10 0 59734  61422.000000  0    4869223.585   1863624.829  -4510721.801
10 0 59734  61542.000000  0    5445910.648   1863610.223  -3793523.675
10 0 59734  61662.000000  0    5927432.403   1821895.214  -3009820.774
10 0 59734  61782.000000  0    6304588.597   1740917.921  -2173297.085
10 0 59734  61902.000000  0    6570041.469   1623950.370  -1298596.961
10 0 59734  62022.000000  0    6718469.536   1475010.292   -401067.267
10 0 59734  62142.000000  0    6746683.336   1298755.884    503517.218
10 0 59734  62262.000000  0    6653697.567   1100367.116   1399237.674
10 0 59734  62382.000000  0    6440762.514    885415.989   2270319.251
10 0 59734  62502.000000  0    6111348.241    659727.885   3101419.062
10 0 59734  62622.000000  0    5671084.080    429239.066   3877903.701
10 0 59734  62742.000000  0    5127654.129    199853.536   4586112.663
10 0 59734  62862.000000  0    4490654.340    -22695.889   5213599.974
10 0 59734  62982.000000  0    3771413.045   -232981.627   5749353.789
10 0 59734  63102.000000  0    2982778.844   -426004.917   6183985.364
10 0 59734  63222.000000  0    2138883.947   -597306.551   6509887.927
10 0 59734  63342.000000  0    1254886.351   -743063.980   6721364.398
10 0 59734  63462.000000  0     346693.694   -860172.713   6814722.311
10 0 59734  63582.000000  0    -569324.646   -946309.880   6788333.071
10 0 59734  63702.000000  0   -1476631.823   -999979.777   6642657.660
10 0 59734  63822.000000  0   -2358820.692  -1020539.819   6380238.434
10 0 59734  63942.000000  0   -3199908.711  -1008206.620   6005657.651
10 0 59734  64062.000000  0   -3984628.749   -964042.473   5525464.361
10 0 59734  64182.000000  0   -4698711.158   -889923.393   4948066.601
10 0 59734  64302.000000  0   -5329150.438   -788488.100   4283589.478
10 0 59734  64422.000000  0   -5864450.394   -663068.844   3543701.042
10 0 59734  64542.000000  0   -6294842.236   -517605.560   2741409.466
10 0 59734  64662.000000  0   -6612473.125   -356545.178   1890835.306
10 0 59734  64782.000000  0   -6811559.964   -184728.034   1006959.166
10 0 59734  64902.000000  0   -6888501.564     -7265.087    105350.723
10 0 59734  65022.000000  0   -6841947.119    170591.761   -798114.153
10 0 59734  65142.000000  0   -6672818.735    343583.022  -1687542.348
10 0 59734  65262.000000  0   -6384287.947    506574.347  -2547310.187
10 0 59734  65382.000000  0   -5981710.118    654685.874  -3362344.398
10 0 59734  65502.000000  0   -5472512.950    783415.169  -4118391.680
10 0 59734  65622.000000  0   -4866045.824    888750.332  -4802267.010
10 0 59734  65742.000000  0   -4173395.032    967270.369  -5402079.161
10 0 59734  65862.000000  0   -3407169.956   1016230.953  -5907429.054
10 0 59734  65982.000000  0   -2581265.324   1033633.439  -6309579.451
10 0 59734  66102.000000  0   -1710605.445   1018276.617  -6601594.084
10 0 59734  66222.000000  0    -810873.742    969791.475  -6778446.286
10 0 59734  66342.000000  0     101766.103    888656.832  -6837094.732
10 0 59734  66462.000000  0    1010952.488    776196.744  -6776529.981
10 0 59734  66582.000000  0    1900412.338    634559.216  -6597792.628
10 0 59734  66702.000000  0    2754246.652    466676.600  -6303957.092
10 0 59734  66822.000000  0    3557209.788    276208.750  -5900084.333
10 0 59734  66942.000000  0    4294978.642     67468.419  -5393142.772
10 0 59734  67062.000000  0    4954408.237   -154669.088  -4791899.682
10 0 59734  67182.000000  0    5523771.887   -384870.700  -4106781.440
10 0 59734  67302.000000  0    5992978.054   -617463.558  -3349702.208
10 0 59734  67422.000000  0    6353759.997   -846563.723  -2533864.876
10 0 59734  67542.000000  0    6599834.376  -1066213.239  -1673535.525
10 0 59734  67662.000000  0    6727023.304  -1270521.557   -783794.215
10 0 59734  67782.000000  0    6733335.849  -1453808.348    119732.265
10 0 59734  67902.000000  0    6619007.382  -1610744.176   1021150.861
10 0 59734  68022.000000  0    6386493.345  -1736485.367   1904590.347
10 0 59734  68142.000000  0    6040418.767  -1826799.706   2754489.818
10 0 59734  68262.000000  0    5587483.127  -1878178.342   3555881.892
10 0 59734  68382.000000  0    5036323.686  -1887932.593   4294662.362
10 0 59734  68502.000000  0    4397342.043  -1854272.458   4957841.352
10 0 59734  68622.000000  0    3682499.600  -1776364.675   5533772.353
10 0 59734  68742.000000  0    2905084.465  -1654370.448   6012355.838
10 0 59734  68862.000000  0    2079456.106  -1489461.292   6385211.095
10 0 59734  68982.000000  0    1220775.083  -1283813.613   6645817.316
10 0 59734  69102.000000  0     344720.791  -1040581.321   6789622.107
10 0 59734  69222.000000  0    -532796.384   -763846.833   6814115.353
10 0 59734  69342.000000  0   -1395923.132   -458552.306   6718869.227
10 0 59734  69462.000000  0   -2229148.206   -130411.623   6505545.091
10 0 59734  69582.000000  0   -3017580.013    214195.880   6177866.811
10 0 59734  69702.000000  0   -3747213.574    568348.069   5741560.803
10 0 59734  69822.000000  0   -4405183.065    924716.818   5204262.112
10 0 59734  69942.000000  0   -4979994.583   1275717.190   4575386.723
10 0 59734  70062.000000  0   -5461735.011   1613666.586   3865971.468
10 0 59734  70182.000000  0   -5842251.267   1930949.856   3088482.984
10 0 59734  70302.000000  0   -6115296.864   2220187.119   2256599.780
10 0 59734  70422.000000  0   -6276642.908   2474400.438   1384970.012
10 0 59734  70542.000000  0   -6324149.802   2687175.624    488947.970
10 0 59734  70662.000000  0   -6257795.804   2852814.037   -415684.474
10 0 59734  70782.000000  0   -6079663.167   2966470.674  -1313004.671
10 0 59734  70902.000000  0   -5793881.636   3024275.086  -2187238.245
10 0 59734  71022.000000  0   -5406530.696   3023432.513  -3023044.976
10 0 59734  71142.000000  0   -4925502.790   2962301.427  -3805793.052
10 0 59734  71262.000000  0   -4360333.146   2840447.015  -4521816.457
10 0 59734  71382.000000  0   -3722000.750   2658669.335  -5158650.450
10 0 59734  71502.000000  0   -3022706.195   2419006.078  -5705240.957
10 0 59734  71622.000000  0   -2275633.421   2124711.449  -6152126.478
10 0 59734  71742.000000  0   -1494697.402   1780210.764  -6491591.885
10 0 59734  71862.000000  0    -694284.432   1391031.827  -6717788.929
10 0 59734  71982.000000  0     111009.141    963715.544  -6826826.517
10 0 59734  72102.000000  0     906636.387    505707.356  -6816829.951
10 0 59734  72222.000000  0    1678356.689     25230.304  -6687971.746
10 0 59734  72342.000000  0    2412485.346   -468859.424  -6442467.879
10 0 59734  72462.000000  0    3096130.898   -967231.098  -6084544.191
10 0 59734  72582.000000  0    3717419.142  -1460250.785  -5620370.718
99
